{
  "type": "FeatureCollection",
  "features": [
    {
      "type": "Feature",
      "id": 340616,
      "geometry": {
        "type": "Polygon",
        "coordinates": [
          [
            [
              -122.0269131371139,
              47.18458482413627
            ],
            [
              -122.02696959136136,
              47.18460383057504
            ],
            [
              -122.0270244447935,
              47.184617891213065
            ],
            [
              -122.02706739000297,
              47.184626485394396
            ],
            [
              -122.02711322159708,
              47.18463290995131
            ],
            [
              -122.0271548201773,
              47.18463532148532
            ],
            [
              -122.02773003845819,
              47.18463348270847
            ],
            [
              -122.03025986635846,
              47.18462535811819
            ],
            [
              -122.03024745341578,
              47.1832298999606
            ],
            [
              -122.03023515909712,
              47.181851988778966
            ],
            [
              -122.03023447266725,
              47.18177251183058
            ],
            [
              -122.03022845963531,
              47.18109717377704
            ],
            [
              -122.03022807928541,
              47.18105511311478
            ],
            [
              -122.03021032964621,
              47.17906077311636
            ],
            [
              -122.032014494056,
              47.17906270954622
            ],
            [
              -122.03216787901167,
              47.17906287040149
            ],
            [
              -122.0338392871097,
              47.179064617194925
            ],
            [
              -122.03737129676931,
              47.17906145496401
            ],
            [
              -122.03737073719891,
              47.17745985410489
            ],
            [
              -122.03216181865919,
              47.17747472273418
            ],
            [
              -122.02839374956321,
              47.177485327838156
            ],
            [
              -122.0284010351316,
              47.17867898571698
            ],
            [
              -122.02840144591232,
              47.17874636867463
            ],
            [
              -122.02781580036162,
              47.1787479989857
            ],
            [
              -122.02687760441792,
              47.17875060536619
            ],
            [
              -122.02687767648496,
              47.17876253055449
            ],
            [
              -122.0268781757326,
              47.17884102174061
            ],
            [
              -122.02688338449131,
              47.17970108697482
            ],
            [
              -122.02689190250935,
              47.181102534696294
            ],
            [
              -122.02690289972317,
              47.18291165983905
            ],
            [
              -122.02691031753926,
              47.18413213261877
            ],
            [
              -122.0269131371139,
              47.18458482413627
            ]
          ]
        ]
      },
      "properties": {
        "OBJECTID": 340616,
        "MAJOR": "342006",
        "MINOR": "9035",
        "PIN": "3420069035",
        "Shape.STArea()": 3023914.867612928,
        "Shape.STLength()": 10430.574607784696
      }
    }
  ]
}